NORAD_CAT_ID,OBJECT_NAME,OBJECT_TYPE,EPOCH,MEAN_MOTION,ECCENTRICITY,INCLINATION,RA_OF_ASC_NODE,ARG_OF_PERICENTER,MEAN_ANOMALY,BSTAR,MEAN_MOTION_DOT,MEAN_MOTION_DDOT,TLE_LINE0,TLE_LINE1,TLE_LINE2,SEMIMAJOR_AXIS,PERIOD,APOGEE,PERIGEE,DECAYED
53434.0,STARLINK-4498,PAYLOAD,2023-04-05 13:09:00,15.08864293,0.000149,53.2122,223.4062,89.4629,270.6534,0.0014663,0.00023141,0.0,0 STARLINK-4498,1 53434U 22097AY  23095.54792392  .00023141  00000-0  14663-2 0  9992,2 53434  53.2122 223.4062 0001490  89.4629 270.6534 15.08864293 37392,6917.806,95.436,540.702,538.64,0.0
53434.0,STARLINK-4498,PAYLOAD,2023-04-05 14:44:23,15.08843308,0.0001555,53.2143,223.1106,52.6889,307.4245,0.0021002,0.00033298,0.0,0 STARLINK-4498,1 53434U 22097AY  23095.61416577  .00033298  00000-0  21002-2 0  9997,2 53434  53.2143 223.1106 0001555  52.6889 307.4245 15.08843308 36912,6917.87,95.437,540.811,538.66,0.0
53434.0,STARLINK-4498,PAYLOAD,2023-04-06 01:52:05,15.08850791,0.000124,53.2127,221.0306,65.8953,294.2169,0.0011855,0.00018635,0.0,0 STARLINK-4498,1 53434U 22097AY  23096.07784376  .00018635  00000-0  11855-2 0  9996,2 53434  53.2127 221.0306 0001240  65.8953 294.2169 15.08850791 36981,6917.847,95.437,540.57,538.855,0.0
53434.0,STARLINK-4498,PAYLOAD,2023-04-06 11:24:24,15.08848742,0.0001419,53.2145,219.2444,87.5215,272.5939,0.00069413,0.00010779,0.0,0 STARLINK-4498,1 53434U 22097AY  23096.47528353  .00010779  00000-0  69413-3 0  9996,2 53434  53.2145 219.2444 0001419  87.5215 272.5939 15.08848742 37048,6917.854,95.437,540.7,538.737,0.0
53434.0,STARLINK-4498,PAYLOAD,2023-04-06 17:45:56,15.08864072,0.0001093,53.2146,218.057,71.7236,288.3875,0.00092788,0.0001452,0.0,0 STARLINK-4498,1 53434U 22097AY  23096.74023775  .00014520  00000-0  92788-3 0  9993,2 53434  53.2146 218.0570 0001093  71.7236 288.3875 15.08864072 37578,6917.807,95.436,540.428,538.916,0.0
53434.0,STARLINK-4498,PAYLOAD,2023-04-07 01:42:52,15.08850548,0.0001332,53.2142,216.5716,53.3048,306.8067,0.0003511,5.306e-05,0.0,0 STARLINK-4498,1 53434U 22097AY  23097.07143946  .00005306  00000-0  35110-3 0  9991,2 53434  53.2142 216.5716 0001332  53.3048 306.8067 15.08850548 37136,6917.848,95.437,540.635,538.792,0.0
53434.0,STARLINK-4498,PAYLOAD,2023-04-07 11:15:11,15.08844266,0.0001169,53.2136,214.7859,73.9476,286.1645,0.00020924,3.044e-05,0.0,0 STARLINK-4498,1 53434U 22097AY  23097.46888037  .00003044  00000-0  20924-3 0  9995,2 53434  53.2136 214.7859 0001169  73.9476 286.1645 15.08844266 37196,6917.867,95.437,540.541,538.924,0.0
53434.0,STARLINK-4498,PAYLOAD,2023-04-08 12:41:21,15.0884405,9.73e-05,53.2153,210.0278,98.8189,261.2913,0.00025693,3.804e-05,0.0,0 STARLINK-4498,1 53434U 22097AY  23098.52871972  .00003804  00000-0  25693-3 0  9995,2 53434  53.2153 210.0278 0000973  98.8189 261.2913 15.08844050 37359,6917.868,95.437,540.406,539.06,0.0
53434.0,STARLINK-4498,PAYLOAD,2023-04-09 02:59:49,15.0883938,0.0001185,53.214,207.3489,108.7855,251.3266,0.000252,3.725e-05,0.0,0 STARLINK-4498,1 53434U 22097AY  23099.12488170  .00003725  00000-0  25200-3 0  9992,2 53434  53.2140 207.3489 0001185 108.7855 251.3266 15.08839380 37446,6917.882,95.438,540.567,538.928,0.0
53434.0,STARLINK-4498,PAYLOAD,2023-04-09 10:56:45,15.0883838,0.0001189,53.2138,205.8615,110.5844,249.5276,9.2789e-05,1.189e-05,0.0,0 STARLINK-4498,1 53434U 22097AY  23099.45608143  .00001189  00000-0  92789-4 0  9991,2 53434  53.2138 205.8615 0001189 110.5844 249.5276 15.08838380 37988,6917.885,95.438,540.573,538.928,0.0
53434.0,STARLINK-4498,PAYLOAD,2023-04-09 17:18:17,15.08847412,0.0001091,53.2138,204.6715,114.1338,245.9768,0.0002815,4.196e-05,0.0,0 STARLINK-4498,1 53434U 22097AY  23099.72103877  .00004196  00000-0  28150-3 0  9996,2 53434  53.2138 204.6715 0001091 114.1338 245.9768 15.08847412 38024,6917.858,95.437,540.477,538.968,0.0
53434.0,STARLINK-4498,PAYLOAD,2023-04-10 09:12:09,15.08841548,8.14e-05,53.2146,201.6962,106.4147,253.6935,0.0001252,1.706e-05,0.0,0 STARLINK-4498,1 53434U 22097AY  23100.38344007  .00001706  00000-0  12520-3 0  9991,2 53434  53.2146 201.6962 0000814 106.4147 253.6935 15.08841548 37630,6917.876,95.437,540.304,539.178,0.0
53434.0,STARLINK-4498,PAYLOAD,2023-04-10 17:09:04,15.08854415,0.0001821,53.212,200.2093,85.1177,275.0023,0.00038621,5.866e-05,0.0,0 STARLINK-4498,1 53434U 22097AY  23100.71463892  .00005866  00000-0  38621-3 0  9993,2 53434  53.2120 200.2093 0001821  85.1177 275.0023 15.08854415 38170,6917.836,95.437,540.961,538.442,0.0
53434.0,STARLINK-4498,PAYLOAD,2023-04-11 12:13:41,15.08850531,0.0001026,53.2132,196.6429,99.5432,260.5676,0.0003427,5.172e-05,0.0,0 STARLINK-4498,1 53434U 22097AY  23101.50951206  .00005172  00000-0  34270-3 0  9998,2 53434  53.2132 196.6429 0001026  99.5432 260.5676 15.08850531 38295,6917.848,95.437,540.423,539.003,0.0
53434.0,STARLINK-4498,PAYLOAD,2023-04-11 15:24:27,15.08862145,9.88e-05,53.2131,196.0497,89.4364,270.6741,0.0006129,9.486e-05,0.0,0 STARLINK-4498,1 53434U 22097AY  23101.64199010  .00009486  00000-0  61290-3 0  9994,2 53434  53.2131 196.0497 0000988  89.4364 270.6741 15.08862145 38313,6917.813,95.436,540.361,538.994,0.0
53434.0,STARLINK-4498,PAYLOAD,2023-04-12 05:42:56,15.0884312,8.74e-05,53.2114,193.3743,98.5441,261.565,0.00043387,6.625e-05,0.0,0 STARLINK-4498,1 53434U 22097AY  23102.23815508  .00006625  00000-0  43387-3 0  9996,2 53434  53.2114 193.3743 0000874  98.5441 261.5650 15.08843120 37914,6917.871,95.437,540.34,539.131,0.0
53434.0,STARLINK-4498,PAYLOAD,2023-04-12 12:04:29,15.08840344,8.14e-05,53.213,192.1824,113.4628,246.645,0.0012282,0.00019313,0.0,0 STARLINK-4498,1 53434U 22097AY  23102.50311712  .00019313  00000-0  12282-2 0  9991,2 53434  53.2130 192.1824 0000814 113.4628 246.6450 15.08840344 38443,6917.879,95.438,540.307,539.181,0.0
53434.0,STARLINK-4498,PAYLOAD,2023-04-13 05:33:44,15.08841831,0.0001368,53.2121,188.9152,73.9607,286.1536,0.00097239,0.00015222,0.0,0 STARLINK-4498,1 53434U 22097AY  23103.23176413  .00015222  00000-0  97239-3 0  9990,2 53434  53.2121 188.9152 0001368  73.9607 286.1536 15.08841831 38550,6917.875,95.437,540.686,538.793,0.0
53434.0,STARLINK-4498,PAYLOAD,2023-04-14 10:10:41,15.08838123,0.0001231,53.2134,183.5611,78.3139,281.7991,0.00023521,3.457e-05,0.0,0 STARLINK-4498,1 53434U 22097AY  23104.42408750  .00003457  00000-0  23521-3 0  9994,2 53434  53.2134 183.5611 0001231  78.3139 281.7991 15.08838123 38245,6917.886,95.438,540.603,538.9,0.0
53434.0,STARLINK-4498,PAYLOAD,2023-04-14 11:46:04,15.08841269,0.0001262,53.2137,183.2638,78.1103,282.0031,0.00029837,4.464e-05,0.0,0 STARLINK-4498,1 53434U 22097AY  23104.49032728  .00004464  00000-0  29837-3 0  9994,2 53434  53.2137 183.2638 0001262  78.1103 282.0031 15.08841269 38746,6917.877,95.437,540.615,538.868,0.0
53434.0,STARLINK-4498,PAYLOAD,2023-04-15 11:36:51,15.08850147,0.0001263,53.2147,178.8003,91.6304,268.4833,0.00070245,0.00010912,0.0,0 STARLINK-4498,1 53434U 22097AY  23105.48392692  .00010912  00000-0  70245-3 0  9997,2 53434  53.2147 178.8003 0001263  91.6304 268.4833 15.08850147 38403,6917.849,95.437,540.588,538.841,0.0
53434.0,STARLINK-4498,PAYLOAD,2023-04-15 16:23:00,15.08861743,0.0001254,53.2146,177.9084,94.5551,265.5584,0.0011463,0.00018013,0.0,0 STARLINK-4498,1 53434U 22097AY  23105.68264424  .00018013  00000-0  11463-2 0  9996,2 53434  53.2146 177.9084 0001254  94.5551 265.5584 15.08861743 38929,6917.814,95.436,540.546,538.811,0.0
53434.0,STARLINK-4498,PAYLOAD,2023-04-16 05:06:05,15.08844177,0.0001386,53.2143,175.529,98.4332,261.6817,0.00082938,0.00012938,0.0,0 STARLINK-4498,1 53434U 22097AY  23106.21256675  .00012938  00000-0  82938-3 0  9991,2 53434  53.2143 175.5290 0001386  98.4332 261.6817 15.08844177 38518,6917.868,95.437,540.691,538.774,0.0
53434.0,STARLINK-4498,PAYLOAD,2023-04-16 11:27:38,15.08852323,0.0001416,53.2151,174.3391,97.6681,262.4472,0.0012878,0.00020274,0.0,0 STARLINK-4498,1 53434U 22097AY  23106.47752616  .00020274  00000-0  12878-2 0  9992,2 53434  53.2151 174.3391 0001416  97.6681 262.4472 15.08852323 39045,6917.843,95.437,540.687,538.728,0.0
53434.0,STARLINK-4498,PAYLOAD,2023-04-16 20:59:56,15.08838876,8.96e-05,53.2148,172.5579,122.1926,237.9153,-0.00017594,-3.087e-05,0.0,0 STARLINK-4498,1 53434U 22097AY  23106.87496519 -.00003087  00000-0 -17594-3 0  9999,2 53434  53.2148 172.5579 0000896 122.1926 237.9153 15.08838876 39103,6917.884,95.438,540.369,539.129,0.0
53434.0,STARLINK-4498,PAYLOAD,2023-04-17 04:56:52,15.08838443,0.0001171,53.2147,171.0708,101.1526,258.9598,0.0010099,0.0001582,0.0,0 STARLINK-4498,1 53434U 22097AY  23107.20616893  .00015820  00000-0  10099-2 0  9994,2 53434  53.2147 171.0708 0001171 101.1526 258.9598 15.08838443 38666,6917.885,95.438,540.56,538.94,0.0
53434.0,STARLINK-4498,PAYLOAD,2023-04-17 12:53:48,15.0884848,0.0001194,53.2146,169.5844,89.3426,270.7703,0.0018705,0.00029613,0.0,0 STARLINK-4498,1 53434U 22097AY  23107.53736949  .00029613  00000-0  18705-2 0  9992,2 53434  53.2146 169.5844 0001194  89.3426 270.7703 15.08848480 39202,6917.854,95.437,540.545,538.893,0.0
53434.0,STARLINK-4498,PAYLOAD,2023-04-17 20:50:44,15.08846312,0.0001093,53.2148,168.0974,78.6938,281.4177,0.00093558,0.00014636,0.0,0 STARLINK-4498,1 53434U 22097AY  23107.86856981  .00014636  00000-0  93558-3 0  9996,2 53434  53.2148 168.0974 0001093  78.6938 281.4177 15.08846312 39250,6917.861,95.437,540.482,538.97,0.0
53434.0,STARLINK-4498,PAYLOAD,2023-04-18 09:33:49,15.08843701,0.0001336,53.2148,165.7182,89.8142,270.3003,0.00041024,6.248e-05,0.0,0 STARLINK-4498,1 53434U 22097AY  23108.39849067  .00006248  00000-0  41024-3 0  9993,2 53434  53.2148 165.7182 0001336  89.8142 270.3003 15.08843701 39339,6917.869,95.437,540.658,538.81,0.0
53434.0,STARLINK-4498,PAYLOAD,2023-04-18 15:55:21,15.08851149,0.0001432,53.2155,164.5305,92.5557,267.5599,0.00057812,8.928e-05,0.0,0 STARLINK-4498,1 53434U 22097AY  23108.66344886  .00008928  00000-0  57812-3 0  9991,2 53434  53.2155 164.5305 0001432  92.5557 267.5599 15.08851149 38881,6917.846,95.437,540.702,538.721,0.0
